ONEWEB-0492             
1 54114U 22138B   24190.95517970  .00000040  00000+0  68405-4 0  9990
2 54114  87.9145  85.9011 0001998  67.8754 292.2591 13.19728392 83421
ONEWEB-0495             
1 54115U 22138C   24191.16052906  .00000091  00000+0  19558-3 0  9998
2 54115  87.9145  85.8716 0002574  63.4576 296.6820 13.19724201 84304
ONEWEB-0497             
1 54116U 22138D   24191.17316394  .00000056  00000+0  10642-3 0  9990
2 54116  87.9140  85.8563 0001945  73.1515 286.9831 13.19725029 84293
ONEWEB-0499             
1 54117U 22138E   24191.15578486  .00000086  00000+0  18130-3 0  9994
2 54117  87.9145  85.8620 0002404  82.4672 277.6734 13.19728071 84302
ONEWEB-0500             
1 54118U 22138F   24191.15894331  .00000086  00000+0  18330-3 0  9997
2 54118  87.9143  85.8567 0001865  74.8982 285.2357 13.19724310 84319
ONEWEB-0501             
1 54119U 22138G   24190.96150832  .00000116  00000+0  25846-3 0  9991
2 54119  87.9140  85.8943 0002369  68.3385 291.7999 13.19723548 83393
ONEWEB-0502             
1 54120U 22138H   24190.94729256  .00000093  00000+0  19871-3 0  9998
2 54120  87.9139  85.8860 0002257  74.4506 285.6876 13.19725291 83416
ONEWEB-0503             
1 54121U 22138J   24191.16368650  .00000099  00000+0  21402-3 0  9990
2 54121  87.9139  85.8494 0002190  88.4086 271.7298 13.19725380 84306
